{"fetched_at":"2026-03-29T16:36:15Z","count":15609,"tles":[{"name":"STARLINK-31696","line1":"1 59435U 24065Q   26087.77905989  .00000822  00000+0  39847-4 0  9996","line2":"2 59435  53.1603 192.8947 0000810  72.1085 288.0005 15.30204480111854","category":"Starlink"}]}